[{"OBJECT_NAME":"HST","OBJECT_ID":"1990-037B","EPOCH":"2026-03-09T03:50:04.164288","MEAN_MOTION":15.29473555,"ECCENTRICITY":0.00018372,"INCLINATION":28.4717,"RA_OF_ASC_NODE":43.6133,"ARG_OF_PERICENTER":120.9992,"MEAN_ANOMALY":239.0785,"EPHEMERIS_TYPE":0,"CLASSIFICATION_TYPE":"U","NORAD_CAT_ID":20580,"ELEMENT_SET_NO":999,"REV_AT_EPOCH":77323,"BSTAR":0.0003002261,"MEAN_MOTION_DOT":9.063e-5,"MEAN_MOTION_DDOT":0},{"OBJECT_NAME":"STARLINK-35485","OBJECT_ID":"2025-245T","EPOCH":"2026-03-09T20:34:31.389600","MEAN_MOTION":15.30187722,"ECCENTRICITY":0.00010902,"INCLINATION":53.1586,"RA_OF_ASC_NODE":283.0093,"ARG_OF_PERICENTER":152.8442,"MEAN_ANOMALY":207.2616,"EPHEMERIS_TYPE":0,"CLASSIFICATION_TYPE":"U","NORAD_CAT_ID":66251,"ELEMENT_SET_NO":999,"REV_AT_EPOCH":2106,"BSTAR":0.0014295218,"MEAN_MOTION_DOT":0.00042204,"MEAN_MOTION_DDOT":0}]
